[{"OBJECT_NAME":"STARLINK-5417","OBJECT_ID":"2022-175AZ","EPOCH":"2026-03-09T07:01:00.764544","MEAN_MOTION":15.08840915,"ECCENTRICITY":0.00014053,"INCLINATION":53.2185,"RA_OF_ASC_NODE":30.6165,"ARG_OF_PERICENTER":86.7369,"MEAN_ANOMALY":273.3784,"EPHEMERIS_TYPE":0,"CLASSIFICATION_TYPE":"U","NORAD_CAT_ID":54805,"ELEMENT_SET_NO":999,"REV_AT_EPOCH":18007,"BSTAR":-8.6963195e-5,"MEAN_MOTION_DOT":-1.672e-5,"MEAN_MOTION_DDOT":0},{"OBJECT_NAME":"OBJECT H","OBJECT_ID":"2025-313H","EPOCH":"2026-03-09T22:36:06.294528","MEAN_MOTION":15.02722765,"ECCENTRICITY":0.0085698,"INCLINATION":97.296,"RA_OF_ASC_NODE":142.3052,"ARG_OF_PERICENTER":313.0136,"MEAN_ANOMALY":46.393,"EPHEMERIS_TYPE":0,"CLASSIFICATION_TYPE":"U","NORAD_CAT_ID":67255,"ELEMENT_SET_NO":999,"REV_AT_EPOCH":1072,"BSTAR":0.0002424576,"MEAN_MOTION_DOT":3.444e-5,"MEAN_MOTION_DDOT":0}]
